GLOBALSTAR M057         
1 25943U 99058A   25122.90409283 -.00000070  00000+0  21089-3 0  9991
2 25943  51.9960 116.7154 0002683 286.7344  73.3211 12.24818782161382
GLOBALSTAR M059         
1 25944U 99058B   25123.05220133 -.00000009  00000+0  96053-3 0  9999
2 25944  52.0037 329.2786 0000666 134.1276  33.8799 11.99979709157375
GLOBALSTAR M056         
1 25945U 99058C   25123.06517773 -.00000077  00000+0  12664-3 0  9991
2 25945  51.9983 332.3603 0001855  91.9404  73.1761 12.04778720157239
GLOBALSTAR M031         
1 25946U 99058D   25123.06383610 -.00000041  00000+0  50128-3 0  9991
2 25946  51.9956 227.3968 0001738 103.3443  67.6842 12.16034049159296
GLOBALSTAR M039         
1 25961U 99062A   25122.95303452 -.00000064  00000+0  22358-3 0  9995
2 25961  51.9862  46.4887 0002108 249.8658 110.1982 12.62324802174505
GLOBALSTAR M034         
1 25962U 99062B   25122.80407313 -.00000084  00000+0 -49108-4 0  9997
2 25962  51.9842 129.3563 0014236 314.9423 215.9930 11.79447690133033
GLOBALSTAR M029         
1 25963U 99062C   25122.97588097 -.00000049  00000+0  46114-3 0  9998
2 25963  51.9799 217.5598 0002288  41.0215 130.6364 11.99895811163697
GLOBALSTAR M061         
1 25964U 99062D   25123.04790786 -.00000042  00000+0  62360-3 0  9992
2 25964  51.9805 312.1606 0005382 233.8651 308.1911 11.76774383116155
